STARLINK-11092 [DTC]    
1 59710U 24088C   26046.37233014  .00001913  00000+0  20639-4 0  9992
2 59710  53.1589  76.5384 0001446 101.1904 258.9277 15.69727452102763
STARLINK-11082 [DTC]    
1 59711U 24088D   26046.49476112  .00001602  00000+0  18070-4 0  9995
2 59711  53.1582  75.8770 0001103 113.3339 246.7795 15.69727140102781
STARLINK-11108 [DTC]    
1 59712U 24088E   26046.55351792  .00002983  00000+0  29442-4 0  9997
2 59712  53.1587  75.5327 0001617  51.7414 308.3750 15.69739131102791
STARLINK-11100 [DTC]    
1 59713U 24088F   26046.35762468 -.00000895  00000+0 -25289-5 0  9990
2 59713  53.1584  76.4407 0001122  88.4936 271.6211 15.69720069102766
STARLINK-11094 [DTC]    
1 59714U 24088G   26046.35272128 -.00000200  00000+0  32060-5 0  9994
2 59714  53.1577  76.4170 0001227  82.2380 277.8777 15.69709156102766
STARLINK-11101 [DTC]    
1 59715U 24088H   26046.47025454 -.00000150  00000+0  36210-5 0  9991
2 59715  53.1592  75.7168 0001122  61.7479 298.3652 15.69710543102782
STARLINK-11099 [DTC]    
1 59716U 24088J   26046.34781444 -.00001353  00000+0 -63082-5 0  9990
2 59716  53.1586  76.3706 0001275 106.5668 253.5490 15.69718519102760
STARLINK-11084 [DTC]    
1 59717U 24088K   26046.52900192  .00004461  00000+0  41625-4 0  9993
2 59717  53.1577  75.3669 0001334  95.4826 264.6344 15.69730496102798
STARLINK-11103 [DTC]    
1 59718U 24088L   26046.58776215  .00000514  00000+0  91087-5 0  9990
2 59718  53.1581  75.0138 0001798 148.8670 211.2454 15.69724820102802
STARLINK-11096 [DTC]    
1 59719U 24088M   26046.31848816 -.00000439  00000+0  12417-5 0  9996
2 59719  53.1587  76.9145 0001643  68.0066 292.1126 15.69707576102755
STARLINK-11095 [DTC]    
1 59720U 24088N   26046.32819737 -.00000584  00000+0  42756-7 0  9991
2 59720  53.1585  76.2435 0001462  75.4937 284.6243 15.69708592102764
STARLINK-31834          
1 59721U 24088P   26046.77097697  .00002265  00000+0  88567-4 0  9998
2 59721  53.1564 241.9070 0001170 105.1376 254.9755 15.30203369100500
STARLINK-31843          
1 59722U 24088Q   26046.84684040 -.00004127  00000+0 -12721-3 0  9990
2 59722  53.1586 241.6689 0000952 107.7294 252.3811 15.30219106100334
STARLINK-31766          
1 59723U 24088R   26046.95636522  .00000475  00000+0  28170-4 0  9991
2 59723  53.1589 240.9318 0001169  94.8721 265.2414 15.30201609100354
STARLINK-31836          
1 59724U 24088S   26046.89527073  .00000651  00000+0  34115-4 0  9997
2 59724  53.1597 241.2601 0001077  97.1627 262.9496 15.30201994100342
STARLINK-31820          
1 59725U 24088T   26046.77414026  .00001065  00000+0  48068-4 0  9990
2 59725  53.1582 241.9271 0001161 107.8065 252.3062 15.30201547100320
