[{"OBJECT_NAME":"STARLINK-11092 [DTC]","OBJECT_ID":"2024-088C","EPOCH":"2026-02-15T08:56:09.324096","MEAN_MOTION":15.69727452,"ECCENTRICITY":0.00014469,"INCLINATION":53.1589,"RA_OF_ASC_NODE":76.5384,"ARG_OF_PERICENTER":101.1904,"MEAN_ANOMALY":258.9277,"EPHEMERIS_TYPE":0,"CLASSIFICATION_TYPE":"U","NORAD_CAT_ID":59710,"ELEMENT_SET_NO":999,"REV_AT_EPOCH":10276,"BSTAR":2.0639033e-5,"MEAN_MOTION_DOT":1.913e-5,"MEAN_MOTION_DDOT":0},{"OBJECT_NAME":"STARLINK-11082 [DTC]","OBJECT_ID":"2024-088D","EPOCH":"2026-02-15T11:52:27.360768","MEAN_MOTION":15.6972714,"ECCENTRICITY":0.00011038,"INCLINATION":53.1582,"RA_OF_ASC_NODE":75.877,"ARG_OF_PERICENTER":113.3339,"MEAN_ANOMALY":246.7795,"EPHEMERIS_TYPE":0,"CLASSIFICATION_TYPE":"U","NORAD_CAT_ID":59711,"ELEMENT_SET_NO":999,"REV_AT_EPOCH":10278,"BSTAR":1.806971e-5,"MEAN_MOTION_DOT":1.602e-5,"MEAN_MOTION_DDOT":0},{"OBJECT_NAME":"STARLINK-11108 [DTC]","OBJECT_ID":"2024-088E","EPOCH":"2026-02-15T13:17:03.948288","MEAN_MOTION":15.69739131,"ECCENTRICITY":0.0001617,"INCLINATION":53.1587,"RA_OF_ASC_NODE":75.5327,"ARG_OF_PERICENTER":51.7414,"MEAN_ANOMALY":308.375,"EPHEMERIS_TYPE":0,"CLASSIFICATION_TYPE":"U","NORAD_CAT_ID":59712,"ELEMENT_SET_NO":999,"REV_AT_EPOCH":10279,"BSTAR":2.9442e-5,"MEAN_MOTION_DOT":2.983e-5,"MEAN_MOTION_DDOT":0},{"OBJECT_NAME":"STARLINK-11100 [DTC]","OBJECT_ID":"2024-088F","EPOCH":"2026-02-15T08:34:58.772352","MEAN_MOTION":15.69720069,"ECCENTRICITY":0.00011223,"INCLINATION":53.1584,"RA_OF_ASC_NODE":76.4407,"ARG_OF_PERICENTER":88.4936,"MEAN_ANOMALY":271.6211,"EPHEMERIS_TYPE":0,"CLASSIFICATION_TYPE":"U","NORAD_CAT_ID":59713,"ELEMENT_SET_NO":999,"REV_AT_EPOCH":10276,"BSTAR":-2.5289e-6,"MEAN_MOTION_DOT":-8.95e-6,"MEAN_MOTION_DDOT":0},{"OBJECT_NAME":"STARLINK-11094 [DTC]","OBJECT_ID":"2024-088G","EPOCH":"2026-02-15T08:27:55.118592","MEAN_MOTION":15.69709156,"ECCENTRICITY":0.00012275,"INCLINATION":53.1577,"RA_OF_ASC_NODE":76.417,"ARG_OF_PERICENTER":82.238,"MEAN_ANOMALY":277.8777,"EPHEMERIS_TYPE":0,"CLASSIFICATION_TYPE":"U","NORAD_CAT_ID":59714,"ELEMENT_SET_NO":999,"REV_AT_EPOCH":10276,"BSTAR":3.205957e-6,"MEAN_MOTION_DOT":-2.0e-6,"MEAN_MOTION_DDOT":0},{"OBJECT_NAME":"STARLINK-11101 [DTC]","OBJECT_ID":"2024-088H","EPOCH":"2026-02-15T11:17:09.992256","MEAN_MOTION":15.69710543,"ECCENTRICITY":0.00011222,"INCLINATION":53.1592,"RA_OF_ASC_NODE":75.7168,"ARG_OF_PERICENTER":61.7479,"MEAN_ANOMALY":298.3652,"EPHEMERIS_TYPE":0,"CLASSIFICATION_TYPE":"U","NORAD_CAT_ID":59715,"ELEMENT_SET_NO":999,"REV_AT_EPOCH":10278,"BSTAR":3.621029e-6,"MEAN_MOTION_DOT":-1.5e-6,"MEAN_MOTION_DDOT":0},{"OBJECT_NAME":"STARLINK-11099 [DTC]","OBJECT_ID":"2024-088J","EPOCH":"2026-02-15T08:20:51.167616","MEAN_MOTION":15.69718519,"ECCENTRICITY":0.00012753,"INCLINATION":53.1586,"RA_OF_ASC_NODE":76.3706,"ARG_OF_PERICENTER":106.5668,"MEAN_ANOMALY":253.549,"EPHEMERIS_TYPE":0,"CLASSIFICATION_TYPE":"U","NORAD_CAT_ID":59716,"ELEMENT_SET_NO":999,"REV_AT_EPOCH":10276,"BSTAR":-6.308249e-6,"MEAN_MOTION_DOT":-1.353e-5,"MEAN_MOTION_DDOT":0},{"OBJECT_NAME":"STARLINK-11084 [DTC]","OBJECT_ID":"2024-088K","EPOCH":"2026-02-15T12:41:45.765888","MEAN_MOTION":15.69730496,"ECCENTRICITY":0.0001334,"INCLINATION":53.1577,"RA_OF_ASC_NODE":75.3669,"ARG_OF_PERICENTER":95.4826,"MEAN_ANOMALY":264.6344,"EPHEMERIS_TYPE":0,"CLASSIFICATION_TYPE":"U","NORAD_CAT_ID":59717,"ELEMENT_SET_NO":999,"REV_AT_EPOCH":10279,"BSTAR":4.1625e-5,"MEAN_MOTION_DOT":4.461e-5,"MEAN_MOTION_DDOT":0},{"OBJECT_NAME":"STARLINK-11103 [DTC]","OBJECT_ID":"2024-088L","EPOCH":"2026-02-15T14:06:22.649760","MEAN_MOTION":15.6972482,"ECCENTRICITY":0.0001798,"INCLINATION":53.1581,"RA_OF_ASC_NODE":75.0138,"ARG_OF_PERICENTER":148.867,"MEAN_ANOMALY":211.2454,"EPHEMERIS_TYPE":0,"CLASSIFICATION_TYPE":"U","NORAD_CAT_ID":59718,"ELEMENT_SET_NO":999,"REV_AT_EPOCH":10280,"BSTAR":9.1087e-6,"MEAN_MOTION_DOT":5.14e-6,"MEAN_MOTION_DDOT":0},{"OBJECT_NAME":"STARLINK-11096 [DTC]","OBJECT_ID":"2024-088M","EPOCH":"2026-02-15T07:38:37.377024","MEAN_MOTION":15.69707576,"ECCENTRICITY":0.0001643,"INCLINATION":53.1587,"RA_OF_ASC_NODE":76.9145,"ARG_OF_PERICENTER":68.0066,"MEAN_ANOMALY":292.1126,"EPHEMERIS_TYPE":0,"CLASSIFICATION_TYPE":"U","NORAD_CAT_ID":59719,"ELEMENT_SET_NO":999,"REV_AT_EPOCH":10275,"BSTAR":1.2417e-6,"MEAN_MOTION_DOT":-4.39e-6,"MEAN_MOTION_DDOT":0},{"OBJECT_NAME":"STARLINK-11095 [DTC]","OBJECT_ID":"2024-088N","EPOCH":"2026-02-15T07:52:36.252768","MEAN_MOTION":15.69708592,"ECCENTRICITY":0.00014621,"INCLINATION":53.1585,"RA_OF_ASC_NODE":76.2435,"ARG_OF_PERICENTER":75.4937,"MEAN_ANOMALY":284.6243,"EPHEMERIS_TYPE":0,"CLASSIFICATION_TYPE":"U","NORAD_CAT_ID":59720,"ELEMENT_SET_NO":999,"REV_AT_EPOCH":10276,"BSTAR":4.2756e-8,"MEAN_MOTION_DOT":-5.84e-6,"MEAN_MOTION_DDOT":0},{"OBJECT_NAME":"STARLINK-31834","OBJECT_ID":"2024-088P","EPOCH":"2026-02-15T18:30:12.410208","MEAN_MOTION":15.30203369,"ECCENTRICITY":0.00011704,"INCLINATION":53.1564,"RA_OF_ASC_NODE":241.907,"ARG_OF_PERICENTER":105.1376,"MEAN_ANOMALY":254.9755,"EPHEMERIS_TYPE":0,"CLASSIFICATION_TYPE":"U","NORAD_CAT_ID":59721,"ELEMENT_SET_NO":999,"REV_AT_EPOCH":10050,"BSTAR":8.8566974e-5,"MEAN_MOTION_DOT":2.265e-5,"MEAN_MOTION_DDOT":0},{"OBJECT_NAME":"STARLINK-31843","OBJECT_ID":"2024-088Q","EPOCH":"2026-02-15T20:19:27.010560","MEAN_MOTION":15.30219106,"ECCENTRICITY":9.525e-5,"INCLINATION":53.1586,"RA_OF_ASC_NODE":241.6689,"ARG_OF_PERICENTER":107.7294,"MEAN_ANOMALY":252.3811,"EPHEMERIS_TYPE":0,"CLASSIFICATION_TYPE":"U","NORAD_CAT_ID":59722,"ELEMENT_SET_NO":999,"REV_AT_EPOCH":10033,"BSTAR":-0.00012720825,"MEAN_MOTION_DOT":-4.127e-5,"MEAN_MOTION_DDOT":0},{"OBJECT_NAME":"STARLINK-31766","OBJECT_ID":"2024-088R","EPOCH":"2026-02-15T22:57:09.955008","MEAN_MOTION":15.30201609,"ECCENTRICITY":0.00011695,"INCLINATION":53.1589,"RA_OF_ASC_NODE":240.9318,"ARG_OF_PERICENTER":94.8721,"MEAN_ANOMALY":265.2414,"EPHEMERIS_TYPE":0,"CLASSIFICATION_TYPE":"U","NORAD_CAT_ID":59723,"ELEMENT_SET_NO":999,"REV_AT_EPOCH":10035,"BSTAR":2.8169981e-5,"MEAN_MOTION_DOT":4.75e-6,"MEAN_MOTION_DDOT":0},{"OBJECT_NAME":"STARLINK-31836","OBJECT_ID":"2024-088S","EPOCH":"2026-02-15T21:29:11.391072","MEAN_MOTION":15.30201994,"ECCENTRICITY":0.00010779,"INCLINATION":53.1597,"RA_OF_ASC_NODE":241.2601,"ARG_OF_PERICENTER":97.1627,"MEAN_ANOMALY":262.9496,"EPHEMERIS_TYPE":0,"CLASSIFICATION_TYPE":"U","NORAD_CAT_ID":59724,"ELEMENT_SET_NO":999,"REV_AT_EPOCH":10034,"BSTAR":3.4115029e-5,"MEAN_MOTION_DOT":6.51e-6,"MEAN_MOTION_DDOT":0},{"OBJECT_NAME":"STARLINK-31820","OBJECT_ID":"2024-088T","EPOCH":"2026-02-15T18:34:45.718464","MEAN_MOTION":15.30201547,"ECCENTRICITY":0.00011614,"INCLINATION":53.1582,"RA_OF_ASC_NODE":241.9271,"ARG_OF_PERICENTER":107.8065,"MEAN_ANOMALY":252.3062,"EPHEMERIS_TYPE":0,"CLASSIFICATION_TYPE":"U","NORAD_CAT_ID":59725,"ELEMENT_SET_NO":999,"REV_AT_EPOCH":10032,"BSTAR":4.8067514e-5,"MEAN_MOTION_DOT":1.065e-5,"MEAN_MOTION_DDOT":0}]
